JY1SAT (JO-97)          
1 43803U 18099AX  26068.68634132  .00017774  00000+0  60804-3 0  9996
2 43803  97.4249 131.3625 0004723 256.6795 103.3919 15.30302628398390
STARLINK-35337          
1 65831U 25221J   26068.35940693  .00023252  00000+0  79446-3 0  9992
2 65831  53.1594  89.8199 0001001  89.3245 270.7870 15.30210838 26032
